NORAD_CAT_ID,OBJECT_NAME,OBJECT_TYPE,EPOCH,MEAN_MOTION,ECCENTRICITY,INCLINATION,RA_OF_ASC_NODE,ARG_OF_PERICENTER,MEAN_ANOMALY,BSTAR,MEAN_MOTION_DOT,MEAN_MOTION_DDOT,TLE_LINE0,TLE_LINE1,TLE_LINE2,SEMIMAJOR_AXIS,PERIOD,APOGEE,PERIGEE,DECAYED
55933.0,STARLINK-5852,PAYLOAD,2023-12-22 19:10:58,14.98332926,0.0002734,69.9992,161.5334,270.6415,89.443,0.00010628,1.175e-05,0.0,0 STARLINK-5852,1 55933U 23037V   23356.79929090  .00001175  00000-0  10628-3 0  9998,2 55933  69.9992 161.5334 0002734 270.6415  89.4430 14.98332926 43300,6950.184,96.107,573.949,570.149,0.0
55933.0,STARLINK-5852,PAYLOAD,2023-12-22 20:47:06,14.98332944,0.0002735,69.9992,161.365,270.725,89.3596,0.00010417,1.15e-05,0.0,0 STARLINK-5852,1 55933U 23037V   23356.86605078  .00001150  00000-0  10417-3 0  9992,2 55933  69.9992 161.3650 0002735 270.7250  89.3596 14.98332944 42972,6950.184,96.107,573.95,570.148,0.0
55933.0,STARLINK-5852,PAYLOAD,2023-12-23 11:12:19,14.98329827,0.0002675,69.9995,159.8505,268.5786,91.5067,-2.8071e-05,-4.28e-06,0.0,0 STARLINK-5852,1 55933U 23037V   23357.46689617 -.00000428  00000-0 -28071-4 0  9995,2 55933  69.9995 159.8505 0002675 268.5786  91.5067 14.98329827 43401,6950.193,96.107,573.918,570.199,0.0
55933.0,STARLINK-5852,PAYLOAD,2023-12-23 14:24:35,14.98330404,0.0002706,69.9995,159.5137,268.3036,91.7813,-2.4344e-05,-3.83e-06,0.0,0 STARLINK-5852,1 55933U 23037V   23357.60041561 -.00000383  00000-0 -24344-4 0  9990,2 55933  69.9995 159.5137 0002706 268.3036  91.7813 14.98330404 43088,6950.192,96.107,573.937,570.176,0.0
55933.0,STARLINK-5852,PAYLOAD,2023-12-23 20:49:07,14.98332446,0.0002692,69.9994,158.8404,267.2571,92.828,-5.7623e-07,-1e-06,0.0,0 STARLINK-5852,1 55933U 23037V   23357.86745327 -.00000100  00000-0 -57623-6 0  9994,2 55933  69.9994 158.8404 0002692 267.2571  92.8280 14.98332446 43125,6950.185,96.107,573.921,570.179,0.0
55933.0,STARLINK-5852,PAYLOAD,2023-12-24 11:14:19,14.98344731,0.0002885,69.9989,157.3243,273.8465,86.2364,8.3129e-05,8.99e-06,0.0,0 STARLINK-5852,1 55933U 23037V   23358.46828046  .00000899  00000-0  83129-4 0  9992,2 55933  69.9989 157.3243 0002885 273.8465  86.2364 14.98344731 43550,6950.147,96.106,574.017,570.007,0.0
55933.0,STARLINK-5852,PAYLOAD,2023-12-24 14:26:35,14.98346788,0.0002857,69.999,156.9872,273.1813,86.9019,0.00010559,1.168e-05,0.0,0 STARLINK-5852,1 55933U 23037V   23358.60179719  .00001168  00000-0  10559-3 0  9990,2 55933  69.9990 156.9872 0002857 273.1813  86.9019 14.98346788 43237,6950.141,96.106,573.992,570.02,0.0
55933.0,STARLINK-5852,PAYLOAD,2023-12-24 20:51:06,14.98349787,0.0002543,70.0001,156.316,268.6393,91.4474,0.00016447,1.871e-05,0.0,0 STARLINK-5852,1 55933U 23037V   23358.86883023  .00001871  00000-0  16447-3 0  9991,2 55933  70.0001 156.3160 0002543 268.6393  91.4474 14.98349787 43273,6950.132,96.106,573.764,570.229,0.0
55933.0,STARLINK-5852,PAYLOAD,2023-12-25 11:16:20,14.98331019,0.0003091,69.9986,154.7977,276.5564,83.5243,1.578e-06,-7.4e-07,0.0,0 STARLINK-5852,1 55933U 23037V   23359.46968337 -.00000074  00000-0  15780-5 0  9996,2 55933  69.9986 154.7977 0003091 276.5564  83.5243 14.98331019 43700,6950.19,96.107,574.203,569.906,0.0
55933.0,STARLINK-5852,PAYLOAD,2023-12-25 14:28:42,14.9825467,0.0003116,69.9992,154.4633,281.9403,78.1406,-0.0008447,-0.00010138,0.0,0 STARLINK-5852,1 55933U 23037V   23359.60327193 -.00010138  00000-0 -84470-3 0  9994,2 55933  69.9992 154.4633 0003116 281.9403  78.1406 14.98254670 43385,6950.426,96.112,574.457,570.125,0.0
55933.0,STARLINK-5852,PAYLOAD,2023-12-25 19:16:55,14.98399985,0.0003357,69.9991,153.9583,260.0718,100.0062,0.00078082,9.253e-05,0.0,0 STARLINK-5852,1 55933U 23037V   23359.80342547  .00009253  00000-0  78082-3 0  9992,2 55933  69.9991 153.9583 0003357 260.0718 100.0062 14.98399985 43759,6949.976,96.103,574.175,569.508,0.0
55933.0,STARLINK-5852,PAYLOAD,2023-12-25 20:53:03,14.98409873,0.0003198,69.9985,153.7873,279.4048,80.6749,0.00089471,0.00010621,0.0,0 STARLINK-5852,1 55933U 23037V   23359.87017596  .00010621  00000-0  89471-3 0  9997,2 55933  69.9985 153.7873 0003198 279.4048  80.6749 14.98409873 43422,6949.946,96.102,574.033,569.588,0.0
55933.0,STARLINK-5852,PAYLOAD,2023-12-26 11:18:21,14.98335541,0.0003313,69.9984,152.2737,275.7388,84.3393,-0.00022174,-2.738e-05,0.0,0 STARLINK-5852,1 55933U 23037V   23360.47108054 -.00002738  00000-0 -22174-3 0  9994,2 55933  69.9984 152.2737 0003313 275.7388  84.3393 14.98335541 43852,6950.176,96.107,574.343,569.738,0.0
55933.0,STARLINK-5852,PAYLOAD,2023-12-26 12:54:29,14.98334189,0.000343,69.9981,152.1044,276.4412,83.6357,-0.00020863,-2.582e-05,0.0,0 STARLINK-5852,1 55933U 23037V   23360.53784035 -.00002582  00000-0 -20863-3 0  9990,2 55933  69.9981 152.1044 0003430 276.4412  83.6357 14.98334189 43528,6950.18,96.107,574.429,569.661,0.0
55933.0,STARLINK-5852,PAYLOAD,2023-12-26 20:55:09,14.98334811,0.0002817,69.9996,151.2647,262.0293,98.0546,-0.00016524,-2.064e-05,0.0,0 STARLINK-5852,1 55933U 23037V   23360.87163722 -.00002064  00000-0 -16524-3 0  9995,2 55933  69.9996 151.2647 0002817 262.0293  98.0546 14.98334811 43576,6950.178,96.107,574.001,570.085,0.0
55933.0,STARLINK-5852,PAYLOAD,2023-12-27 11:20:22,14.98316012,0.0002657,70.0003,149.7502,251.8466,108.2404,-7.1276e-06,-1.78e-06,0.0,0 STARLINK-5852,1 55933U 23037V   23361.47248545 -.00000178  00000-0 -71276-5 0  9990,2 55933  70.0003 149.7502 0002657 251.8466 108.2404 14.98316012 44009,6950.236,96.108,573.948,570.254,0.0
55933.0,STARLINK-5852,PAYLOAD,2023-12-27 14:32:39,14.98314688,0.0002627,69.9999,149.4129,251.3672,108.7202,-1.6846e-05,-2.94e-06,0.0,0 STARLINK-5852,1 55933U 23037V   23361.60600764 -.00000294  00000-0 -16846-4 0  9990,2 55933  69.9999 149.4129 0002627 251.3672 108.7202 14.98314688 43684,6950.24,96.108,573.931,570.279,0.0
55933.0,STARLINK-5852,PAYLOAD,2023-12-27 20:57:11,14.98314038,0.0002652,70.0001,148.7404,249.2287,110.8588,-4.3482e-05,-6.11e-06,0.0,0 STARLINK-5852,1 55933U 23037V   23361.87305102 -.00000611  00000-0 -43482-4 0  9996,2 55933  70.0001 148.7404 0002652 249.2287 110.8588 14.98314038 43720,6950.242,96.108,573.95,570.264,0.0
55933.0,STARLINK-5852,PAYLOAD,2023-12-28 11:22:23,14.98318356,0.0002982,69.9997,147.2261,260.6459,99.4363,3.7339e-05,3.52e-06,0.0,0 STARLINK-5852,1 55933U 23037V   23362.47388708  .00000352  00000-0  37339-4 0  9990,2 55933  69.9997 147.2261 0002982 260.6459  99.4363 14.98318356 44158,6950.229,96.108,574.166,570.021,0.0
55933.0,STARLINK-5852,PAYLOAD,2023-12-28 14:34:40,14.9831868,0.0002899,69.9995,146.8887,257.5014,102.5821,4.1611e-05,4.03e-06,0.0,0 STARLINK-5852,1 55933U 23037V   23362.60740764  .00000403  00000-0  41611-4 0  9994,2 55933  69.9995 146.8887 0002899 257.5014 102.5821 14.98318680 43833,6950.228,96.108,574.108,570.078,0.0
55933.0,STARLINK-5852,PAYLOAD,2023-12-28 19:23:04,14.98321723,0.0002858,69.9998,146.3842,258.3464,101.7375,4.8013e-05,4.8e-06,0.0,0 STARLINK-5852,1 55933U 23037V   23362.80768737  .00000480  00000-0  48013-4 0  9994,2 55933  69.9998 146.3842 0002858 258.3464 101.7375 14.98321723 43865,6950.218,96.108,574.07,570.097,0.0
55933.0,STARLINK-5852,PAYLOAD,2023-12-29 11:24:24,14.98321828,0.0002987,69.9994,144.7008,261.3208,98.7612,0.00011198,1.243e-05,0.0,0 STARLINK-5852,1 55933U 23037V   23363.47528933  .00001243  00000-0  11198-3 0  9991,2 55933  69.9994 144.7008 0002987 261.3208  98.7612 14.98321828 44305,6950.218,96.108,574.159,570.007,0.0
55933.0,STARLINK-5852,PAYLOAD,2023-12-29 14:36:41,14.98321616,0.0002995,69.9994,144.3641,261.3944,98.6875,0.00010445,1.153e-05,0.0,0 STARLINK-5852,1 55933U 23037V   23363.60881029  .00001153  00000-0  10445-3 0  9998,2 55933  69.9994 144.3641 0002995 261.3944  98.6875 14.98321616 43988,6950.219,96.108,574.165,570.002,0.0
55933.0,STARLINK-5852,PAYLOAD,2023-12-29 19:25:05,14.98324833,0.0002958,69.9995,143.8596,260.8054,99.277,0.00013483,1.516e-05,0.0,0 STARLINK-5852,1 55933U 23037V   23363.80908836  .00001516  00000-0  13483-3 0  9994,2 55933  69.9995 143.8596 0002958 260.8054  99.2770 14.98324833 44017,6950.209,96.107,574.13,570.018,0.0
55933.0,STARLINK-5852,PAYLOAD,2023-12-30 11:26:26,14.98328141,0.0002971,69.9995,142.1759,261.6714,98.4108,5.5783e-05,5.73e-06,0.0,0 STARLINK-5852,1 55933U 23037V   23364.47668993  .00000573  00000-0  55783-4 0  9997,2 55933  69.9995 142.1759 0002971 261.6714  98.4108 14.98328141 44457,6950.199,96.107,574.129,569.999,0.0
55933.0,STARLINK-5852,PAYLOAD,2023-12-30 13:02:34,14.98328077,0.0002982,69.9995,142.0076,261.8867,98.1954,5.3116e-05,5.41e-06,0.0,0 STARLINK-5852,1 55933U 23037V   23364.54345014  .00000541  00000-0  53116-4 0  9994,2 55933  69.9995 142.0076 0002982 261.8867  98.1954 14.98328077 44129,6950.199,96.107,574.136,569.991,0.0
55933.0,STARLINK-5852,PAYLOAD,2023-12-30 19:27:06,14.98330621,0.0002957,69.9996,141.3345,261.7694,98.313,7.7687e-05,8.34e-06,0.0,0 STARLINK-5852,1 55933U 23037V   23364.81048805  .00000834  00000-0  77687-4 0  9996,2 55933  69.9996 141.3345 0002957 261.7694  98.3130 14.98330621 44160,6950.191,96.107,574.111,570.001,0.0
55933.0,STARLINK-5852,PAYLOAD,2023-12-31 11:28:26,14.98330261,0.0002911,69.9997,139.6511,267.2094,92.8732,2.2596e-05,1.77e-06,0.0,0 STARLINK-5852,1 55933U 23037V   23365.47808997  .00000177  00000-0  22596-4 0  9994,2 55933  69.9997 139.6511 0002911 267.2094  92.8732 14.98330261 44607,6950.192,96.107,574.08,570.034,0.0
55933.0,STARLINK-5852,PAYLOAD,2023-12-31 19:29:07,14.98332273,0.0002887,69.9998,138.8096,267.2244,92.8585,4.3129e-05,4.22e-06,0.0,0 STARLINK-5852,1 55933U 23037V   23365.81188785  .00000422  00000-0  43129-4 0  9996,2 55933  69.9998 138.8096 0002887 267.2244  92.8585 14.98332273 44315,6950.186,96.107,574.057,570.044,0.0
55933.0,STARLINK-5852,PAYLOAD,2024-01-01 11:30:27,14.98329697,0.0002791,70.0,137.1266,266.017,94.067,1.7008e-05,1.1e-06,0.0,0 STARLINK-5852,1 55933U 23037V   24001.47948935  .00000110  00000-0  17008-4 0  9998,2 55933  70.0000 137.1266 0002791 266.0170  94.0670 14.98329697 44755,6950.194,96.107,573.999,570.119,0.0
